{
  "type": "FeatureCollection",
  "features": [
    {
      "type": "Feature",
      "properties": {
        "norad_id": 25590,
        "name": "COSMOS 2361",
        "group": "musson",
        "lat": -62.55357024019863,
        "lon": -174.37505763958055,
        "alt_km": 981.6864928383638,
        "timestamp": "2025-12-02T07:10:09.385071+00:00",
        "meta_object_name": "COSMOS 2361",
        "meta_object_id": "1998-076A",
        "meta_epoch": "2025-12-01T20:20:23.680320",
        "meta_mean_motion": 13.73215635,
        "meta_eccentricity": 0.0030194,
        "meta_inclination": 82.9343,
        "meta_ra_of_asc_node": 352.1432,
        "meta_arg_of_pericenter": 297.2201,
        "meta_mean_anomaly": 237.0065,
        "meta_ephemeris_type": 0,
        "meta_classification_type": "U",
        "meta_norad_cat_id": 25590,
        "meta_element_set_no": 999,
        "meta_rev_at_epoch": 34961,
        "meta_bstar": 7.3163e-05,
        "meta_mean_motion_dot": 8.3e-07,
        "meta_mean_motion_ddot": 0,
        "tle_line1": "1 25590U 98076A   25335.84749630  .00000083  00000+0  73163-4 0  9994",
        "tle_line2": "2 25590  82.9343 352.1432 0030194 297.2201 237.0065 13.73215635349614"
      },
      "geometry": {
        "type": "Point",
        "coordinates": [
          -174.37505763958055,
          -62.55357024019863
        ]
      }
    },
    {
      "type": "Feature",
      "properties": {
        "norad_id": 26818,
        "name": "COSMOS 2378",
        "group": "musson",
        "lat": -76.28100877565045,
        "lon": -23.09575709942599,
        "alt_km": 976.0729613490712,
        "timestamp": "2025-12-02T07:10:09.385092+00:00",
        "meta_object_name": "COSMOS 2378",
        "meta_object_id": "2001-023A",
        "meta_epoch": "2025-12-01T20:09:43.040736",
        "meta_mean_motion": 13.74140422,
        "meta_eccentricity": 0.0031853,
        "meta_inclination": 82.9281,
        "meta_ra_of_asc_node": 7.8072,
        "meta_arg_of_pericenter": 236.0309,
        "meta_mean_anomaly": 297.9488,
        "meta_ephemeris_type": 0,
        "meta_classification_type": "U",
        "meta_norad_cat_id": 26818,
        "meta_element_set_no": 999,
        "meta_rev_at_epoch": 22773,
        "meta_bstar": 5.0735e-05,
        "meta_mean_motion_dot": 6.3e-07,
        "meta_mean_motion_ddot": 0,
        "tle_line1": "1 26818U 01023A   25335.84008149  .00000063  00000+0  50735-4 0  9995",
        "tle_line2": "2 26818  82.9281   7.8072 0031853 236.0309 297.9488 13.74140422227730"
      },
      "geometry": {
        "type": "Point",
        "coordinates": [
          -23.09575709942599,
          -76.28100877565045
        ]
      }
    },
    {
      "type": "Feature",
      "properties": {
        "norad_id": 27436,
        "name": "COSMOS 2389",
        "group": "musson",
        "lat": 82.92840063086928,
        "lon": 48.66643378142722,
        "alt_km": 938.490005967381,
        "timestamp": "2025-12-02T07:10:09.385105+00:00",
        "meta_object_name": "COSMOS 2389",
        "meta_object_id": "2002-026A",
        "meta_epoch": "2025-12-01T17:35:49.796736",
        "meta_mean_motion": 13.75152815,
        "meta_eccentricity": 0.0047799,
        "meta_inclination": 82.9493,
        "meta_ra_of_asc_node": 315.1338,
        "meta_arg_of_pericenter": 90.621,
        "meta_mean_anomaly": 81.8704,
        "meta_ephemeris_type": 0,
        "meta_classification_type": "U",
        "meta_norad_cat_id": 27436,
        "meta_element_set_no": 999,
        "meta_rev_at_epoch": 17997,
        "meta_bstar": 6.158e-05,
        "meta_mean_motion_dot": 7.5e-07,
        "meta_mean_motion_ddot": 0,
        "tle_line1": "1 27436U 02026A   25335.73321524  .00000075  00000+0  61580-4 0  9992",
        "tle_line2": "2 27436  82.9493 315.1338 0047799  90.6210  81.8704 13.75152815179976"
      },
      "geometry": {
        "type": "Point",
        "coordinates": [
          48.66643378142722,
          82.92840063086928
        ]
      }
    },
    {
      "type": "Feature",
      "properties": {
        "norad_id": 27818,
        "name": "COSMOS 2398",
        "group": "musson",
        "lat": 32.50274819224974,
        "lon": 95.8690498233551,
        "alt_km": 965.5317209808773,
        "timestamp": "2025-12-02T07:10:09.385117+00:00",
        "meta_object_name": "COSMOS 2398",
        "meta_object_id": "2003-023A",
        "meta_epoch": "2025-12-01T20:14:01.420800",
        "meta_mean_motion": 13.72384077,
        "meta_eccentricity": 0.0032153,
        "meta_inclination": 82.9472,
        "meta_ra_of_asc_node": 280.7287,
        "meta_arg_of_pericenter": 141.0815,
        "meta_mean_anomaly": 276.0983,
        "meta_ephemeris_type": 0,
        "meta_classification_type": "U",
        "meta_norad_cat_id": 27818,
        "meta_element_set_no": 999,
        "meta_rev_at_epoch": 12667,
        "meta_bstar": 3.4684e-05,
        "meta_mean_motion_dot": 4.7e-07,
        "meta_mean_motion_ddot": 0,
        "tle_line1": "1 27818U 03023A   25335.84307200  .00000047  00000+0  34684-4 0  9995",
        "tle_line2": "2 27818  82.9472 280.7287 0032153 141.0815 276.0983 13.72384077126677"
      },
      "geometry": {
        "type": "Point",
        "coordinates": [
          95.8690498233551,
          32.50274819224974
        ]
      }
    },
    {
      "type": "Feature",
      "properties": {
        "norad_id": 28380,
        "name": "COSMOS 2407",
        "group": "musson",
        "lat": -15.792704823409977,
        "lon": 42.624787649247565,
        "alt_km": 993.1249700410435,
        "timestamp": "2025-12-02T07:10:09.385128+00:00",
        "meta_object_name": "COSMOS 2407",
        "meta_object_id": "2004-028A",
        "meta_epoch": "2025-12-01T20:05:49.644960",
        "meta_mean_motion": 13.7631169,
        "meta_eccentricity": 0.0040558,
        "meta_inclination": 82.9615,
        "meta_ra_of_asc_node": 220.9639,
        "meta_arg_of_pericenter": 84.393,
        "meta_mean_anomaly": 346.4605,
        "meta_ephemeris_type": 0,
        "meta_classification_type": "U",
        "meta_norad_cat_id": 28380,
        "meta_element_set_no": 999,
        "meta_rev_at_epoch": 7273,
        "meta_bstar": 6.6399e-05,
        "meta_mean_motion_dot": 8.1e-07,
        "meta_mean_motion_ddot": 0,
        "tle_line1": "1 28380U 04028A   25335.83738015  .00000081  00000+0  66399-4 0  9993",
        "tle_line2": "2 28380  82.9615 220.9639 0040558  84.3930 346.4605 13.76311690 72738"
      },
      "geometry": {
        "type": "Point",
        "coordinates": [
          42.624787649247565,
          -15.792704823409977
        ]
      }
    },
    {
      "type": "Feature",
      "properties": {
        "norad_id": 28521,
        "name": "COSMOS 2414",
        "group": "musson",
        "lat": 23.230901065609398,
        "lon": -164.40060586210757,
        "alt_km": 959.715410193664,
        "timestamp": "2025-12-02T07:10:09.385139+00:00",
        "meta_object_name": "COSMOS 2414",
        "meta_object_id": "2005-002A",
        "meta_epoch": "2025-12-01T20:40:28.562880",
        "meta_mean_motion": 13.87900629,
        "meta_eccentricity": 0.004022,
        "meta_inclination": 82.9499,
        "meta_ra_of_asc_node": 192.8852,
        "meta_arg_of_pericenter": 170.2964,
        "meta_mean_anomaly": 189.8986,
        "meta_ephemeris_type": 0,
        "meta_classification_type": "U",
        "meta_norad_cat_id": 28521,
        "meta_element_set_no": 999,
        "meta_rev_at_epoch": 5644,
        "meta_bstar": 6.858e-05,
        "meta_mean_motion_dot": 9.8e-07,
        "meta_mean_motion_ddot": 0,
        "tle_line1": "1 28521U 05002A   25335.86144170  .00000098  00000+0  68580-4 0  9991",
        "tle_line2": "2 28521  82.9499 192.8852 0040220 170.2964 189.8986 13.87900629 56446"
      },
      "geometry": {
        "type": "Point",
        "coordinates": [
          -164.40060586210757,
          23.230901065609398
        ]
      }
    },
    {
      "type": "Feature",
      "properties": {
        "norad_id": 32052,
        "name": "COSMOS 2429",
        "group": "musson",
        "lat": -80.57639327237074,
        "lon": -56.92317171563644,
        "alt_km": 1013.7575786773423,
        "timestamp": "2025-12-02T07:10:09.385150+00:00",
        "meta_object_name": "COSMOS 2429",
        "meta_object_id": "2007-038A",
        "meta_epoch": "2025-12-01T19:21:10.577952",
        "meta_mean_motion": 13.75147728,
        "meta_eccentricity": 0.0039673,
        "meta_inclination": 82.9805,
        "meta_ra_of_asc_node": 351.3694,
        "meta_arg_of_pericenter": 67.5791,
        "meta_mean_anomaly": 292.956,
        "meta_ephemeris_type": 0,
        "meta_classification_type": "U",
        "meta_norad_cat_id": 32052,
        "meta_element_set_no": 999,
        "meta_rev_at_epoch": 91452,
        "meta_bstar": 6.1742e-05,
        "meta_mean_motion_dot": 7.5e-07,
        "meta_mean_motion_ddot": 0,
        "tle_line1": "1 32052U 07038A   25335.80637243  .00000075  00000+0  61742-4 0  9996",
        "tle_line2": "2 32052  82.9805 351.3694 0039673  67.5791 292.9560 13.75147728914529"
      },
      "geometry": {
        "type": "Point",
        "coordinates": [
          -56.92317171563644,
          -80.57639327237074
        ]
      }
    },
    {
      "type": "Feature",
      "properties": {
        "norad_id": 35635,
        "name": "COSMOS 2454",
        "group": "musson",
        "lat": -2.3784953236088873,
        "lon": 176.26523428832687,
        "alt_km": 935.6666469974489,
        "timestamp": "2025-12-02T07:10:09.385160+00:00",
        "meta_object_name": "COSMOS 2454",
        "meta_object_id": "2009-039A",
        "meta_epoch": "2025-12-01T20:52:03.307008",
        "meta_mean_motion": 13.8992645,
        "meta_eccentricity": 0.0020468,
        "meta_inclination": 82.9558,
        "meta_ra_of_asc_node": 176.8849,
        "meta_arg_of_pericenter": 102.7985,
        "meta_mean_anomaly": 268.5895,
        "meta_ephemeris_type": 0,
        "meta_classification_type": "U",
        "meta_norad_cat_id": 35635,
        "meta_element_set_no": 999,
        "meta_rev_at_epoch": 82999,
        "meta_bstar": 6.6401e-05,
        "meta_mean_motion_dot": 9.8e-07,
        "meta_mean_motion_ddot": 0,
        "tle_line1": "1 35635U 09039A   25335.86948272  .00000098  00000+0  66401-4 0  9994",
        "tle_line2": "2 35635  82.9558 176.8849 0020468 102.7985 268.5895 13.89926450829993"
      },
      "geometry": {
        "type": "Point",
        "coordinates": [
          176.26523428832687,
          -2.3784953236088873
        ]
      }
    },
    {
      "type": "Feature",
      "properties": {
        "norad_id": 36519,
        "name": "COSMOS 2463",
        "group": "musson",
        "lat": 4.496631482586045,
        "lon": 34.941441891234064,
        "alt_km": 978.0959877972291,
        "timestamp": "2025-12-02T07:10:09.385174+00:00",
        "meta_object_name": "COSMOS 2463",
        "meta_object_id": "2010-017A",
        "meta_epoch": "2025-12-01T17:43:33.508992",
        "meta_mean_motion": 13.71647612,
        "meta_eccentricity": 0.0035163,
        "meta_inclination": 82.9623,
        "meta_ra_of_asc_node": 34.7962,
        "meta_arg_of_pericenter": 319.5813,
        "meta_mean_anomaly": 160.4057,
        "meta_ephemeris_type": 0,
        "meta_classification_type": "U",
        "meta_norad_cat_id": 36519,
        "meta_element_set_no": 999,
        "meta_rev_at_epoch": 78086,
        "meta_bstar": 5.9643e-05,
        "meta_mean_motion_dot": 6.9e-07,
        "meta_mean_motion_ddot": 0,
        "tle_line1": "1 36519U 10017A   25335.73858228  .00000069  00000+0  59643-4 0  9999",
        "tle_line2": "2 36519  82.9623  34.7962 0035163 319.5813 160.4057 13.71647612780865"
      },
      "geometry": {
        "type": "Point",
        "coordinates": [
          34.941441891234064,
          4.496631482586045
        ]
      }
    }
  ]
}